SBIRS GEO-2 (USA 241)   
1 39120U 13011A   24275.83035750 -.00000255  00000+0  00000+0 0  9993
2 39120   3.1840  48.7380 0001907 152.5434  70.7063  1.00271355 42287
EUTELSAT 117 WEST A     
1 39122U 13012A   24275.68452037 -.00000015  00000+0  00000+0 0  9994
2 39122   0.0426  50.9259 0002873 144.2693 305.3469  1.00273287 42185
ANIK G1                 
1 39127U 13014A   24275.62480103 -.00000076  00000+0  00000+0 0  9997
2 39127   0.0245 109.6421 0002780 114.6639 264.1832  1.00272516 42001
ZHONGXING-11            
1 39157U 13020A   24275.86734361 -.00000292  00000+0  00000+0 0  9991
2 39157   0.0206 164.2746 0002965 122.9437 134.0101  1.00273444 41645
EUTELSAT 7B             
1 39163U 13022A   24275.81854771  .00000047  00000+0  00000+0 0  9990
2 39163   0.0694  10.8376 0001052 321.7132 340.1591  1.00272565 41708
WGS F5 (USA 243)        
1 39168U 13024A   24276.38413293 -.00000284  00000+0  00000+0 0  9994
2 39168   0.0226 195.5754 0000662  13.5761 248.2326  1.00269206 41583
SES-6                   
1 39172U 13026A   24275.83035750 -.00000262  00000+0  00000+0 0  9994
2 39172   0.0198  13.6542 0001940 184.7600  71.0920  1.00272439 41476
IRNSS-1A                
1 39199U 13034A   24273.04394369  .00000094  00000+0  00000+0 0  9999
2 39199  34.3123  72.9269 0021320 180.0763 186.1978  1.00270538 41097
MUOS-2                  
1 39206U 13036A   24276.20327218  .00000068  00000+0  00000+0 0  9991
2 39206   3.8082  41.8780 0056390 178.7279  47.0151  1.00275372 41050
ALPHASAT                
1 39215U 13038A   24275.36090800  .00000132  00000+0  00000+0 0  9995
2 39215   2.9039   6.5487 0003843 199.8574 318.9677  1.00272181 37762
INSAT-3D                
1 39216U 13038B   24275.89840949 -.00000340  00000+0  00000+0 0  9993
2 39216   0.3063  91.7630 0001204 110.7309 261.5490  1.00275923 40830
WGS F6 (USA 244)        
1 39222U 13041A   24276.31299326  .00000089  00000+0  00000+0 0  9998
2 39222   0.0100 209.5691 0000449  57.3182  82.1300  1.00272294 40821
ES'HAIL 1               
1 39233U 13044A   24276.08869203  .00000143  00000+0  00000+0 0  9995
2 39233   0.0266  20.0920 0002050 175.2293 233.3786  1.00270828 40650
GSAT-7                  
1 39234U 13044B   24276.09285535 -.00000078  00000+0  00000+0 0  9995
2 39234   0.0698  94.3906 0008199 154.6590 229.6920  1.00272659 40651
AMOS-4                  
1 39237U 13045A   24276.16785551  .00000007  00000+0  00000+0 0  9991
2 39237   0.0199 135.0150 0002022 111.3281 250.5004  1.00273040 40640
AEHF-3 (USA 246)        
1 39256U 13050A   24275.65441740  .00000008  00000+0  00000+0 0  9991
2 39256   3.7409  72.1783 0076742 174.0642 234.4664  1.00508255 39421
ASTRA 2E                
1 39285U 13056A   24275.37410406  .00000147  00000+0  00000+0 0  9997
2 39285   0.0607 358.9394 0002497 192.9123 341.9194  1.00270516 40177
FM-6                    
1 39360U 13058A   24275.68452037 -.00000019  00000+0  00000+0 0  9992
2 39360   0.0212 244.7224 0000274 205.8675  50.5863  1.00269447 39810
RADUGA-1M 3             
1 39375U 13062A   24276.12757684  .00000158  00000+0  00000+0 0  9992
2 39375   4.3669  79.9224 0003922 290.9323  81.3966  1.00273601 39885
SES-8                   
1 39460U 13071A   24275.86617580 -.00000272  00000+0  00000+0 0  9995
2 39460   0.0347 259.5537 0001792 249.5382 268.8251  1.00273110 38172
INMARSAT 5-F1           
1 39476U 13073A   24276.10396667  .00000027  00000+0  00000+0 0  9999
2 39476   0.0195 136.5005 0000539  87.6848 247.2090  1.00272348 39681
TKSAT-1 (TUPAC KATARI)  
1 39481U 13075A   24276.13243698 -.00000195  00000+0  00000+0 0  9992
2 39481   0.0519  39.5406 0002327 148.5608 143.7118  1.00274166 39605
EXPRESS-AM5             
1 39487U 13077A   24275.92190145 -.00000281  00000+0  00000+0 0  9990
2 39487   0.0187 218.7584 0001139  68.0292 196.2750  1.00271999 40085
GSAT-14                 
1 39498U 14001A   24276.42410458 -.00000076  00000+0  00000+0 0  9990
2 39498   0.0168 148.8621 0005416  85.8293   3.6261  1.00272200 39331
THAICOM 6               
1 39500U 14002A   24276.08174403 -.00000122  00000+0  00000+0 0  9996
2 39500   0.0456 119.7163 0003502  75.6660 283.8333  1.00274392 39271
TDRS 12                 
1 39504U 14004A   24275.83035750 -.00000271  00000+0  00000+0 0  9990
2 39504   3.5714   5.9301 0006581 217.9205  44.9192  1.00263547 38027
ABS-2                   
1 39508U 14006A   24275.82202296 -.00000088  00000+0  00000+0 0  9992
2 39508   0.0373  81.2507 0003451 101.4855 199.1606  1.00272154 39028
ATHENA-FIDUS            
1 39509U 14006B   24276.12757684  .00000154  00000+0  00000+0 0  9996
2 39509   0.0147 234.2832 0001615 335.7064 245.0797  1.00271616 39252
TURKSAT 4A              
1 39522U 14007A   24276.26577337  .00000146  00000+0  00000+0 0  9993
2 39522   0.0366 252.7166 0004264 337.1519 279.2968  1.00271736 38968
EXPRESS-AT1             
1 39612U 14010A   24275.80465963  .00000076  00000+0  00000+0 0  9999
2 39612   0.0170 247.9203 0000196 196.5599 272.2326  1.00271965 38565
EXPRESS-AT2             
1 39613U 14010B   24275.89285200 -.00000282  00000+0  00000+0 0  9993
2 39613   0.0186 250.4328 0001224  28.5887 193.3764  1.00274016 38252
AMAZONAS 4A             
1 39616U 14011A   24276.12132530 -.00000253  00000+0  00000+0 0  9999
2 39616   0.0494 179.4517 0004165  23.7891 137.8066  1.00272669 38627
ASTRA 5B                
1 39617U 14011B   24275.36090800  .00000133  00000+0  00000+0 0  9994
2 39617   0.0852 303.4352 0003679 267.6283 312.9472  1.00271207 38416
IRNSS-1B                
1 39635U 14017A   24272.03142333  .00000093  00000+0  00000+0 0  9995
2 39635  28.7929 251.0850 0020055 188.3958 354.1363  1.00272729 38501
LUCH-5V                 
1 39727U 14023A   24275.86596071 -.00000268  00000+0  00000+0 0  9995
2 39727   3.5623  75.2107 0003729 155.0917 187.3074  1.00271974 38103
KAZSAT-3                
1 39728U 14023B   24275.80465963  .00000059  00000+0  00000+0 0  9992
2 39728   0.0194 121.8288 0000450 218.7324  18.6619  1.00270846 36199
EUTELSAT 3B             
1 39773U 14030A   24275.81854771  .00000019  00000+0  00000+0 0  9996
2 39773   0.0681 354.2952 0005314 197.1811 117.3593  1.00274296 37816
ASIASAT 8 (AMOS-7)      
1 40107U 14046A   24276.38730226 -.00000032  00000+0  00000+0 0  9993
2 40107   0.0443  45.0797 0002054 143.3541 318.7162  1.00271663 37250
ASIASAT 6               
1 40141U 14052A   24275.88462627 -.00000364  00000+0  00000+0 0  9997
2 40141   0.0330  98.8285 0000926  74.6479 276.0028  1.00272738 36815
OPTUS 10                
1 40146U 14054A   24276.17549510 -.00000146  00000+0  00000+0 0  9992
2 40146   0.0764  61.5054 0003980  91.4453  77.6332  1.00273294 36871
MEASAT-3B               
1 40147U 14054B   24275.86443704 -.00000244  00000+0  00000+0 0  9995
2 40147   0.0505  45.8667 0000870  79.4230 288.5118  1.00271956 36669
LUCH (OLYMP-K 1)        
1 40258U 14058A   24275.91724228 -.00000142  00000+0  00000+0 0  9998
2 40258   0.2755  89.3965 0001828 194.4188  39.4444  1.00272417 34744
HIMAWARI-8              
1 40267U 14060A   24275.92198833 -.00000277  00000+0  00000+0 0  9998
2 40267   0.0220 203.4589 0000670 355.5261 284.7276  1.00269164 36617
IRNSS-1C                
1 40269U 14061A   24275.83184624 -.00000157  00000+0  00000+0 0  9991
2 40269   4.9289 102.1890 0020134   5.2172 286.0062  1.00267488 36439
INTELSAT 30 (IS-30)     
1 40271U 14062A   24273.76098768 -.00000168  00000+0  00000+0 0  9990
2 40271   0.3157  64.4631 0002160 218.1291 265.1626  1.00335076    13
ARSAT 1                 
1 40272U 14062B   24275.85952019 -.00000261  00000+0  00000+0 0  9995
2 40272   0.0399  41.3097 0001848 155.4700  51.9313  1.00270615 36367
EXPRESS-AM6             
1 40277U 14064A   24275.76785720  .00000096  00000+0  00000+0 0  9990
2 40277   0.0236 192.2013 0000946 342.0177 166.1767  1.00270223 35328
GSAT-16                 
1 40332U 14078A   24275.80465963  .00000083  00000+0  00000+0 0  9992
2 40332   0.0229 127.1435 0005432 345.7096 242.9266  1.00271114 35857
DIRECTV 14              
1 40333U 14078B   24276.37492360 -.00000125  00000+0  00000+0 0  9995
2 40333   0.0285 279.5873 0000344 124.7070   3.0368  1.00270248 36006
YAMAL 401               
1 40345U 14082A   24275.86300800 -.00000230  00000+0  00000+0 0  9990
2 40345   0.0103 211.8563 0000533   3.9188 195.9672  1.00271148 35661
ASTRA 2G                
1 40364U 14089A   24275.37410406  .00000146  00000+0  00000+0 0  9993
2 40364   0.0586  24.5091 0001923  69.1379  79.8054  1.00271908 35716
FENGYUN 2G              
1 40367U 14090A   24275.86897355 -.00000299  00000+0  00000+0 0  9994
2 40367   4.0594  80.2507 0002896 166.4032 176.8559  1.00268047 35741
MUOS-3                  
1 40374U 15002A   24275.84771590 -.00000127  00000+0  00000+0 0  9996
2 40374   3.4036  37.1715 0061650 178.4772  85.0802  1.00270585 35339
INMARSAT 5-F2           
1 40384U 15005A   24276.38369852 -.00000284  00000+0  00000+0 0  9998
2 40384   0.0192 183.0120 0000503 319.6575 312.0169  1.00270101 35431
ABS-3A                  
1 40424U 15010A   24276.07757457 -.00000027  00000+0  00000+0 0  9992
2 40424   0.0043 186.2072 0001582 327.1054 242.9245  1.00270218 35127
EUTELSAT 115 WEST B     
1 40425U 15010B   24275.97202270 -.00000026  00000+0  00000+0 0  9998
2 40425   0.0241  39.2874 0000201  96.0134 110.9228  1.00270401 35188
EXPRESS-AM7             
1 40505U 15012A   24275.31993796  .00000147  00000+0  00000+0 0  9990
2 40505   0.0221 257.5329 0002850 306.6574 321.5455  1.00274211 34752
IRNSS-1D                
1 40547U 15018A   24275.81971987 -.00000298  00000+0  00000+0 0  9993
2 40547  27.2798 250.8590 0018816 193.6218 333.4286  1.00270823 34739
BEIDOU-3S IGSO-1S       
1 40549U 15019A   24275.46274299 -.00000157  00000+0  00000+0 0  9993
2 40549  50.3750 302.9322 0036396 197.7170 133.2843  1.00282435 34819
THOR 7                  
1 40613U 15022A   24275.91312410 -.00000009  00000+0  00000+0 0  9993
2 40613   0.0103 154.3116 0002565  37.7568 147.1346  1.00271929 34560
